[
  {
    "name": "ONEWEB-0162",
    "noradId": "48056",
    "line1": "1 48056U 21025Q   26180.39446271 -.00000041  00000+0 -14820-3 0  9990",
    "line2": "2 48056  87.8970 317.7934 0001946  94.1944 265.9408 13.13470010255140"
  },
  {
    "name": "ONEWEB-0155",
    "noradId": "48057",
    "line1": "1 48057U 21025R   26180.40136411 -.00000250  00000+0 -72046-3 0  9991",
    "line2": "2 48057  87.8971 317.7883 0001944 103.1475 256.9871 13.13470182255282"
  },
  {
    "name": "ONEWEB-0149",
    "noradId": "48058",
    "line1": "1 48058U 21025S   26180.42337760 -.00000152  00000+0 -45132-3 0  9991",
    "line2": "2 48058  87.8972 317.7880 0001952  92.6792 267.4561 13.13471450255095"
  },
  {
    "name": "ONEWEB-0148",
    "noradId": "48059",
    "line1": "1 48059U 21025T   26180.38612771  .00000586  00000+0  15683-2 0  9991",
    "line2": "2 48059  87.8969 317.8014 0002502  88.4651 271.6764 13.13473951255215"
  },
  {
    "name": "ONEWEB-0160",
    "noradId": "48060",
    "line1": "1 48060U 21025U   26180.40304925 -.00000233  00000+0 -67350-3 0  9995",
    "line2": "2 48060  87.8966 317.7939 0001145  93.0740 267.0520 13.13468425255165"
  },
  {
    "name": "ONEWEB-0163",
    "noradId": "48061",
    "line1": "1 48061U 21025V   26180.54017578  .00000174  00000+0  44104-3 0  9990",
    "line2": "2 48061  87.8973 317.7620 0002149 101.9089 258.2281 13.13468457255308"
  },
  {
    "name": "ONEWEB-0159",
    "noradId": "48062",
    "line1": "1 48062U 21025W   26180.37936097  .00000246  00000+0  63735-3 0  9999",
    "line2": "2 48062  87.8975 317.7880 0002084 102.4764 257.6598 13.13468669255201"
  },
  {
    "name": "ONEWEB-0164",
    "noradId": "48063",
    "line1": "1 48063U 21025X   26180.36073638  .00000254  00000+0  65949-3 0  9990",
    "line2": "2 48063  87.8975 317.7981 0001777  99.0275 261.1056 13.13471077255183"
  },
  {
    "name": "ONEWEB-0167",
    "noradId": "48064",
    "line1": "1 48064U 21025Y   26180.38867700  .00000055  00000+0  11598-3 0  9994",
    "line2": "2 48064  87.8964 317.8010 0002166 117.6911 242.4438 13.13468142255177"
  },
  {
    "name": "ONEWEB-0166",
    "noradId": "48065",
    "line1": "1 48065U 21025Z   26180.41152426 -.00000263  00000+0 -75497-3 0  9992",
    "line2": "2 48065  87.8976 317.7694 0001921  97.2959 262.8388 13.13472231255254"
  },
  {
    "name": "ONEWEB-0151",
    "noradId": "48066",
    "line1": "1 48066U 21025AA  26180.33702878 -.00000411  00000+0 -11612-2 0  9999",
    "line2": "2 48066  87.8967 317.8000 0001855 102.7616 257.3721 13.13469437255181"
  },
  {
    "name": "ONEWEB-0170",
    "noradId": "48067",
    "line1": "1 48067U 21025AB  26180.34548782 -.00000108  00000+0 -33065-3 0  9993",
    "line2": "2 48067  87.8969 317.8003 0001400 108.6821 251.4460 13.13468893255142"
  },
  {
    "name": "ONEWEB-0168",
    "noradId": "48068",
    "line1": "1 48068U 21025AC  26180.33025530 -.00000278  00000+0 -79596-3 0  9991",
    "line2": "2 48068  87.8975 317.8037 0001902 100.4145 259.7198 13.13468661255156"
  },
  {
    "name": "ONEWEB-0173",
    "noradId": "48069",
    "line1": "1 48069U 21025AD  26180.39797618 -.00000141  00000+0 -42153-3 0  9999",
    "line2": "2 48069  87.8968 317.7910 0002175 105.7704 254.3665 13.13470531255407"
  },
  {
    "name": "ONEWEB-0171",
    "noradId": "48070",
    "line1": "1 48070U 21025AE  26180.35904205  .00000167  00000+0  42288-3 0  9994",
    "line2": "2 48070  87.8964 317.8068 0001812 101.2632 258.8701 13.13471324255218"
  },
  {
    "name": "ONEWEB-0172",
    "noradId": "48071",
    "line1": "1 48071U 21025AF  26180.33873017 -.00000245  00000+0 -70635-3 0  9995",
    "line2": "2 48071  87.8970 317.8015 0001933 103.5841 256.5503 13.13469418256104"
  },
  {
    "name": "ONEWEB-0174",
    "noradId": "48072",
    "line1": "1 48072U 21025AG  26180.39628781 -.00000237  00000+0 -68474-3 0  9997",
    "line2": "2 48072  87.8984 317.7906 0001763  91.7412 268.3919 13.13469772255431"
  },
  {
    "name": "ONEWEB-0175",
    "noradId": "48073",
    "line1": "1 48073U 21025AH  26180.35057786  .00000029  00000+0  44431-4 0  9990",
    "line2": "2 48073  87.8975 317.7832 0001733 108.8645 251.2672 13.13471516255082"
  },
  {
    "name": "ONEWEB-0177",
    "noradId": "48074",
    "line1": "1 48074U 21025AJ  26180.36243448  .00000278  00000+0  72574-3 0  9998",
    "line2": "2 48074  87.8971 317.7989 0002099  97.4700 262.6667 13.13468908255275"
  },
  {
    "name": "ONEWEB-0178",
    "noradId": "48075",
    "line1": "1 48075U 21025AK  26180.38119971 -.00000608  00000+0 -16988-2 0  9999",
    "line2": "2 48075  87.8962 317.8056 0001942 110.8342 249.2995 13.13473038255321"
  },
  {
    "name": "ONEWEB-0108",
    "noradId": "48076",
    "line1": "1 48076U 21025AL  26180.34041906 -.00000211  00000+0 -61272-3 0  9995",
    "line2": "2 48076  87.8975 317.7951 0001788  91.7274 268.4059 13.13470959255242"
  },
  {
    "name": "ONEWEB-0169",
    "noradId": "48077",
    "line1": "1 48077U 21025AM  26180.37258850  .00000412  00000+0  10936-2 0  9998",
    "line2": "2 48077  87.8969 317.7958 0001967  96.1887 263.9466 13.13470372253903"
  },
  {
    "name": "ONEWEB-0176",
    "noradId": "48210",
    "line1": "1 48210U 21031A   26180.28171389  .00000272  00000+0  69981-3 0  9994",
    "line2": "2 48210  87.8972 287.2891 0001999 103.7250 256.4103 13.14504092249905"
  },
  {
    "name": "ONEWEB-0184",
    "noradId": "48211",
    "line1": "1 48211U 21031B   26180.33087108 -.00000191  00000+0 -54993-3 0  9995",
    "line2": "2 48211  87.8980 287.2809 0002050 124.3887 235.7437 13.14503663249888"
  },
  {
    "name": "ONEWEB-0179",
    "noradId": "48212",
    "line1": "1 48212U 21031C   26180.30887867  .00000283  00000+0  86912-4 0  9990",
    "line2": "2 48212  87.8995 284.0550 0219608 217.3276 141.2487 14.25534033250771"
  },
  {
    "name": "ONEWEB-0180",
    "noradId": "48213",
    "line1": "1 48213U 21031D   26180.33405307 -.00000120  00000+0 -35840-3 0  9994",
    "line2": "2 48213  87.8981 287.2763 0002335 106.5507 253.5879 13.14505226249815"
  },
  {
    "name": "ONEWEB-0218",
    "noradId": "48214",
    "line1": "1 48214U 21031E   26180.28013822  .00000265  00000+0  68139-3 0  9991",
    "line2": "2 48214  87.8979 287.2865 0002363 122.0052 238.1307 13.14503227249965"
  },
  {
    "name": "ONEWEB-0209",
    "noradId": "48215",
    "line1": "1 48215U 21031F   26180.34514877  .00000049  00000+0  98302-4 0  9991",
    "line2": "2 48215  87.8969 287.2894 0002214  99.9454 260.1926 13.14502458249978"
  },
  {
    "name": "ONEWEB-0198",
    "noradId": "48216",
    "line1": "1 48216U 21031G   26180.32943127 -.00000157  00000+0 -45923-3 0  9996",
    "line2": "2 48216  87.8962 287.2909 0002338 108.3300 251.8084 13.14503533250082"
  },
  {
    "name": "ONEWEB-0189",
    "noradId": "48217",
    "line1": "1 48217U 21031H   26179.80915090 -.00000033  00000+0 -12238-3 0  9992",
    "line2": "2 48217  87.8971 287.3820 0002219 107.7463 252.3909 13.14504040249755"
  }
]