OBJECT_NAME,OBJECT_ID,EPOCH,MEAN_MOTION,ECCENTRICITY,INCLINATION,RA_OF_ASC_NODE,ARG_OF_PERICENTER,MEAN_ANOMALY,EPHEMERIS_TYPE,CLASSIFICATION_TYPE,NORAD_CAT_ID,ELEMENT_SET_NO,REV_AT_EPOCH,BSTAR,MEAN_MOTION_DOT,MEAN_MOTION_DDOT
ONEWEB-0162,2021-025Q,2026-06-29T09:28:01.578144,13.13470010,.0001946,87.8970,317.7934,94.1944,265.9408,0,U,48056,999,25514,-.1482E-3,-.41E-6,0
ONEWEB-0155,2021-025R,2026-06-29T09:37:57.859104,13.13470182,.0001944,87.8971,317.7883,103.1475,256.9871,0,U,48057,999,25528,-.72046E-3,-.25E-5,0
ONEWEB-0149,2021-025S,2026-06-29T10:09:39.824640,13.13471450,.0001952,87.8972,317.7880,92.6792,267.4561,0,U,48058,999,25509,-.45132E-3,-.152E-5,0
ONEWEB-0148,2021-025T,2026-06-29T09:16:01.434144,13.13473951,.0002502,87.8969,317.8014,88.4651,271.6764,0,U,48059,999,25521,.15683E-2,.586E-5,0
ONEWEB-0160,2021-025U,2026-06-29T09:40:23.455200,13.13468425,.0001145,87.8966,317.7939,93.0740,267.0520,0,U,48060,999,25516,-.6735E-3,-.233E-5,0
ONEWEB-0163,2021-025V,2026-06-29T12:57:51.187392,13.13468457,.0002149,87.8973,317.7620,101.9089,258.2281,0,U,48061,999,25530,.44104E-3,.174E-5,0
ONEWEB-0159,2021-025W,2026-06-29T09:06:16.787808,13.13468669,.0002084,87.8975,317.7880,102.4764,257.6598,0,U,48062,999,25520,.63735E-3,.246E-5,0
ONEWEB-0164,2021-025X,2026-06-29T08:39:27.623232,13.13471077,.0001777,87.8975,317.7981,99.0275,261.1056,0,U,48063,999,25518,.65949E-3,.254E-5,0
ONEWEB-0167,2021-025Y,2026-06-29T09:19:41.692800,13.13468142,.0002166,87.8964,317.8010,117.6911,242.4438,0,U,48064,999,25517,.11598E-3,.55E-6,0
ONEWEB-0166,2021-025Z,2026-06-29T09:52:35.696064,13.13472231,.0001921,87.8976,317.7694,97.2959,262.8388,0,U,48065,999,25525,-.75497E-3,-.263E-5,0
ONEWEB-0151,2021-025AA,2026-06-29T08:05:19.286592,13.13469437,.0001855,87.8967,317.8000,102.7616,257.3721,0,U,48066,999,25518,-.11612E-2,-.411E-5,0
ONEWEB-0170,2021-025AB,2026-06-29T08:17:30.147648,13.13468893,.00014,87.8969,317.8003,108.6821,251.4460,0,U,48067,999,25514,-.33065E-3,-.108E-5,0
ONEWEB-0168,2021-025AC,2026-06-29T07:55:34.057920,13.13468661,.0001902,87.8975,317.8037,100.4145,259.7198,0,U,48068,999,25515,-.79596E-3,-.278E-5,0
ONEWEB-0173,2021-025AD,2026-06-29T09:33:05.141952,13.13470531,.0002175,87.8968,317.7910,105.7704,254.3665,0,U,48069,999,25540,-.42153E-3,-.141E-5,0
ONEWEB-0171,2021-025AE,2026-06-29T08:37:01.233120,13.13471324,.0001812,87.8964,317.8068,101.2632,258.8701,0,U,48070,999,25521,.42288E-3,.167E-5,0
ONEWEB-0172,2021-025AF,2026-06-29T08:07:46.286688,13.13469418,.0001933,87.8970,317.8015,103.5841,256.5503,0,U,48071,999,25610,-.70635E-3,-.245E-5,0
ONEWEB-0174,2021-025AG,2026-06-29T09:30:39.266784,13.13469772,.0001763,87.8984,317.7906,91.7412,268.3919,0,U,48072,999,25543,-.68474E-3,-.237E-5,0
ONEWEB-0175,2021-025AH,2026-06-29T08:24:49.927104,13.13471516,.0001733,87.8975,317.7832,108.8645,251.2672,0,U,48073,999,25508,.44431E-4,.29E-6,0
ONEWEB-0177,2021-025AJ,2026-06-29T08:41:54.339072,13.13468908,.0002099,87.8971,317.7989,97.4700,262.6667,0,U,48074,999,25527,.72574E-3,.278E-5,0
ONEWEB-0178,2021-025AK,2026-06-29T09:08:55.654944,13.13473038,.0001942,87.8962,317.8056,110.8342,249.2995,0,U,48075,999,25532,-.16988E-2,-.608E-5,0
ONEWEB-0108,2021-025AL,2026-06-29T08:10:12.206784,13.13470959,.0001788,87.8975,317.7951,91.7274,268.4059,0,U,48076,999,25524,-.61272E-3,-.211E-5,0
ONEWEB-0169,2021-025AM,2026-06-29T08:56:31.646400,13.13470372,.0001967,87.8969,317.7958,96.1887,263.9466,0,U,48077,999,25390,.10936E-2,.412E-5,0
ONEWEB-0176,2021-031A,2026-06-29T06:45:40.080096,13.14504092,.0001999,87.8972,287.2891,103.7250,256.4103,0,U,48210,999,24990,.69981E-3,.272E-5,0
ONEWEB-0184,2021-031B,2026-06-29T07:56:27.261312,13.14503663,.000205,87.8980,287.2809,124.3887,235.7437,0,U,48211,999,24988,-.54993E-3,-.191E-5,0
ONEWEB-0179,2021-031C,2026-06-29T07:24:47.117088,14.25534033,.0219608,87.8995,284.0550,217.3276,141.2487,0,U,48212,999,25077,.86912E-4,.283E-5,0
ONEWEB-0180,2021-031D,2026-06-29T08:01:02.185248,13.14505226,.0002335,87.8981,287.2763,106.5507,253.5879,0,U,48213,999,24981,-.3584E-3,-.12E-5,0
ONEWEB-0218,2021-031E,2026-06-29T06:43:23.942208,13.14503227,.0002363,87.8979,287.2865,122.0052,238.1307,0,U,48214,999,24996,.68139E-3,.265E-5,0
ONEWEB-0209,2021-031F,2026-06-29T08:17:00.853728,13.14502458,.0002214,87.8969,287.2894,99.9454,260.1926,0,U,48215,999,24997,.98302E-4,.49E-6,0
ONEWEB-0198,2021-031G,2026-06-29T07:54:22.861728,13.14503533,.0002338,87.8962,287.2909,108.3300,251.8084,0,U,48216,999,25008,-.45923E-3,-.157E-5,0
ONEWEB-0189,2021-031H,2026-06-28T19:25:10.637760,13.14504040,.00022192,87.8971,287.3820,107.7463,252.3909,0,U,48217,999,24975,-.12237652E-3,-.33E-6,0
